CCSDS_OMM_VERS = 2.0
CREATION_DATE  = 
ORIGINATOR     = 

OBJECT_NAME    = ISS (ZARYA)
OBJECT_ID      = 1998-067A
CENTER_NAME    = EARTH
REF_FRAME      = TEME
TIME_SYSTEM    = UTC
MEAN_ELEMENT_THEORY = SGP/SGP4

EPOCH          = 2026-02-26T13:00:04.689216
MEAN_MOTION    = 15.48311551
ECCENTRICITY   = .00083443
INCLINATION    = 51.6322
RA_OF_ASC_NODE = 127.4658
ARG_OF_PERICENTER = 135.8715
MEAN_ANOMALY   = 224.2940

EPHEMERIS_TYPE = 0
CLASSIFICATION_TYPE = U
NORAD_CAT_ID   = 25544
ELEMENT_SET_NO = 999
REV_AT_EPOCH   = 55460
BSTAR          = .23065818E-3
MEAN_MOTION_DOT = .11988E-3
MEAN_MOTION_DDOT = 0

CCSDS_OMM_VERS = 2.0
CREATION_DATE  = 
ORIGINATOR     = 

OBJECT_NAME    = CSS (TIANHE)
OBJECT_ID      = 2021-035A
CENTER_NAME    = EARTH
REF_FRAME      = TEME
TIME_SYSTEM    = UTC
MEAN_ELEMENT_THEORY = SGP/SGP4

EPOCH          = 2026-02-26T01:36:20.998944
MEAN_MOTION    = 15.60105415
ECCENTRICITY   = .00058847
INCLINATION    = 41.4663
RA_OF_ASC_NODE = 278.8535
ARG_OF_PERICENTER = 197.5112
MEAN_ANOMALY   = 162.5524

EPHEMERIS_TYPE = 0
CLASSIFICATION_TYPE = U
NORAD_CAT_ID   = 48274
ELEMENT_SET_NO = 999
REV_AT_EPOCH   = 27579
BSTAR          = .12875241E-3
MEAN_MOTION_DOT = .10434E-3
MEAN_MOTION_DDOT = 0

CCSDS_OMM_VERS = 2.0
CREATION_DATE  = 
ORIGINATOR     = 

OBJECT_NAME    = ISS (NAUKA)
OBJECT_ID      = 2021-066A
CENTER_NAME    = EARTH
REF_FRAME      = TEME
TIME_SYSTEM    = UTC
MEAN_ELEMENT_THEORY = SGP/SGP4

EPOCH          = 2026-02-26T13:00:04.689216
MEAN_MOTION    = 15.48311551
ECCENTRICITY   = .00083443
INCLINATION    = 51.6322
RA_OF_ASC_NODE = 127.4658
ARG_OF_PERICENTER = 135.8715
MEAN_ANOMALY   = 224.2940

EPHEMERIS_TYPE = 0
CLASSIFICATION_TYPE = U
NORAD_CAT_ID   = 49044
ELEMENT_SET_NO = 999
REV_AT_EPOCH   = 23044
BSTAR          = .23065818E-3
MEAN_MOTION_DOT = .11988E-3
MEAN_MOTION_DDOT = 0

CCSDS_OMM_VERS = 2.0
CREATION_DATE  = 
ORIGINATOR     = 

OBJECT_NAME    = FREGAT DEB
OBJECT_ID      = 2011-037PF
CENTER_NAME    = EARTH
REF_FRAME      = TEME
TIME_SYSTEM    = UTC
MEAN_ELEMENT_THEORY = SGP/SGP4

EPOCH          = 2026-02-26T03:42:40.727520
MEAN_MOTION    = 12.39434237
ECCENTRICITY   = .094985
INCLINATION    = 51.6503
RA_OF_ASC_NODE = 335.3298
ARG_OF_PERICENTER = 32.8817
MEAN_ANOMALY   = 332.7637

EPHEMERIS_TYPE = 0
CLASSIFICATION_TYPE = U
NORAD_CAT_ID   = 49271
ELEMENT_SET_NO = 999
REV_AT_EPOCH   = 21126
BSTAR          = .45931555E-1
MEAN_MOTION_DOT = .30355E-3
MEAN_MOTION_DDOT = 0

CCSDS_OMM_VERS = 2.0
CREATION_DATE  = 
ORIGINATOR     = 

OBJECT_NAME    = CSS (WENTIAN)
OBJECT_ID      = 2022-085A
CENTER_NAME    = EARTH
REF_FRAME      = TEME
TIME_SYSTEM    = UTC
MEAN_ELEMENT_THEORY = SGP/SGP4

EPOCH          = 2026-02-26T01:36:20.998944
MEAN_MOTION    = 15.60105415
ECCENTRICITY   = .00058847
INCLINATION    = 41.4663
RA_OF_ASC_NODE = 278.8535
ARG_OF_PERICENTER = 197.5112
MEAN_ANOMALY   = 162.5524

EPHEMERIS_TYPE = 0
CLASSIFICATION_TYPE = U
NORAD_CAT_ID   = 53239
ELEMENT_SET_NO = 999
REV_AT_EPOCH   = 17384
BSTAR          = .12875241E-3
MEAN_MOTION_DOT = .10434E-3
MEAN_MOTION_DDOT = 0

CCSDS_OMM_VERS = 2.0
CREATION_DATE  = 
ORIGINATOR     = 

OBJECT_NAME    = CSS (MENGTIAN)
OBJECT_ID      = 2022-143A
CENTER_NAME    = EARTH
REF_FRAME      = TEME
TIME_SYSTEM    = UTC
MEAN_ELEMENT_THEORY = SGP/SGP4

EPOCH          = 2026-02-26T01:36:20.998944
MEAN_MOTION    = 15.60105415
ECCENTRICITY   = .00058847
INCLINATION    = 41.4663
RA_OF_ASC_NODE = 278.8535
ARG_OF_PERICENTER = 197.5112
MEAN_ANOMALY   = 162.5524

EPHEMERIS_TYPE = 0
CLASSIFICATION_TYPE = U
NORAD_CAT_ID   = 54216
ELEMENT_SET_NO = 999
REV_AT_EPOCH   = 15864
BSTAR          = .12875241E-3
MEAN_MOTION_DOT = .10434E-3
MEAN_MOTION_DDOT = 0

CCSDS_OMM_VERS = 2.0
CREATION_DATE  = 
ORIGINATOR     = 

OBJECT_NAME    = PROGRESS-MS 31
OBJECT_ID      = 2025-146A
CENTER_NAME    = EARTH
REF_FRAME      = TEME
TIME_SYSTEM    = UTC
MEAN_ELEMENT_THEORY = SGP/SGP4

EPOCH          = 2026-02-26T13:00:04.689216
MEAN_MOTION    = 15.48311551
ECCENTRICITY   = .00083443
INCLINATION    = 51.6322
RA_OF_ASC_NODE = 127.4658
ARG_OF_PERICENTER = 135.8715
MEAN_ANOMALY   = 224.2940

EPHEMERIS_TYPE = 0
CLASSIFICATION_TYPE = U
NORAD_CAT_ID   = 64751
ELEMENT_SET_NO = 999
REV_AT_EPOCH   = 675
BSTAR          = .23065818E-3
MEAN_MOTION_DOT = .11988E-3
MEAN_MOTION_DDOT = 0

CCSDS_OMM_VERS = 2.0
CREATION_DATE  = 
ORIGINATOR     = 

OBJECT_NAME    = TIANZHOU-9
OBJECT_ID      = 2025-149A
CENTER_NAME    = EARTH
REF_FRAME      = TEME
TIME_SYSTEM    = UTC
MEAN_ELEMENT_THEORY = SGP/SGP4

EPOCH          = 2026-02-26T01:36:20.998944
MEAN_MOTION    = 15.60105415
ECCENTRICITY   = .00058847
INCLINATION    = 41.4663
RA_OF_ASC_NODE = 278.8535
ARG_OF_PERICENTER = 197.5112
MEAN_ANOMALY   = 162.5524

EPHEMERIS_TYPE = 0
CLASSIFICATION_TYPE = U
NORAD_CAT_ID   = 64786
ELEMENT_SET_NO = 999
REV_AT_EPOCH   = 25530
BSTAR          = .12875241E-3
MEAN_MOTION_DOT = .10434E-3
MEAN_MOTION_DDOT = 0

CCSDS_OMM_VERS = 2.0
CREATION_DATE  = 
ORIGINATOR     = 

OBJECT_NAME    = DRAGON CRS-33
OBJECT_ID      = 2025-186A
CENTER_NAME    = EARTH
REF_FRAME      = TEME
TIME_SYSTEM    = UTC
MEAN_ELEMENT_THEORY = SGP/SGP4

EPOCH          = 2026-02-26T13:00:04.689216
MEAN_MOTION    = 15.48311551
ECCENTRICITY   = .00083443
INCLINATION    = 51.6322
RA_OF_ASC_NODE = 127.4658
ARG_OF_PERICENTER = 135.8715
MEAN_ANOMALY   = 224.2940

EPHEMERIS_TYPE = 0
CLASSIFICATION_TYPE = U
NORAD_CAT_ID   = 65304
ELEMENT_SET_NO = 999
REV_AT_EPOCH   = 11
BSTAR          = .23065818E-3
MEAN_MOTION_DOT = .11988E-3
MEAN_MOTION_DDOT = 0

CCSDS_OMM_VERS = 2.0
CREATION_DATE  = 
ORIGINATOR     = 

OBJECT_NAME    = PROGRESS-MS 32
OBJECT_ID      = 2025-204A
CENTER_NAME    = EARTH
REF_FRAME      = TEME
TIME_SYSTEM    = UTC
MEAN_ELEMENT_THEORY = SGP/SGP4

EPOCH          = 2026-02-26T13:00:04.689216
MEAN_MOTION    = 15.48311551
ECCENTRICITY   = .00083443
INCLINATION    = 51.6322
RA_OF_ASC_NODE = 127.4658
ARG_OF_PERICENTER = 135.8715
MEAN_ANOMALY   = 224.2940

EPHEMERIS_TYPE = 0
CLASSIFICATION_TYPE = U
NORAD_CAT_ID   = 65586
ELEMENT_SET_NO = 999
REV_AT_EPOCH   = 27
BSTAR          = .23065818E-3
MEAN_MOTION_DOT = .11988E-3
MEAN_MOTION_DDOT = 0

CCSDS_OMM_VERS = 2.0
CREATION_DATE  = 
ORIGINATOR     = 

OBJECT_NAME    = CYGNUS NG-23
OBJECT_ID      = 2025-208A
CENTER_NAME    = EARTH
REF_FRAME      = TEME
TIME_SYSTEM    = UTC
MEAN_ELEMENT_THEORY = SGP/SGP4

EPOCH          = 2026-02-26T13:00:04.689216
MEAN_MOTION    = 15.48311551
ECCENTRICITY   = .00083443
INCLINATION    = 51.6322
RA_OF_ASC_NODE = 127.4658
ARG_OF_PERICENTER = 135.8715
MEAN_ANOMALY   = 224.2940

EPHEMERIS_TYPE = 0
CLASSIFICATION_TYPE = U
NORAD_CAT_ID   = 65616
ELEMENT_SET_NO = 999
REV_AT_EPOCH   = 22
BSTAR          = .23065818E-3
MEAN_MOTION_DOT = .11988E-3
MEAN_MOTION_DDOT = 0

CCSDS_OMM_VERS = 2.0
CREATION_DATE  = 
ORIGINATOR     = 

OBJECT_NAME    = ISS OBJECT XK
OBJECT_ID      = 1998-067XK
CENTER_NAME    = EARTH
REF_FRAME      = TEME
TIME_SYSTEM    = UTC
MEAN_ELEMENT_THEORY = SGP/SGP4

EPOCH          = 2026-02-26T12:04:54.675840
MEAN_MOTION    = 15.97908056
ECCENTRICITY   = .00073895
INCLINATION    = 51.6191
RA_OF_ASC_NODE = 106.0856
ARG_OF_PERICENTER = 23.7474
MEAN_ANOMALY   = 336.3875

EPHEMERIS_TYPE = 0
CLASSIFICATION_TYPE = U
NORAD_CAT_ID   = 65731
ELEMENT_SET_NO = 999
REV_AT_EPOCH   = 2510
BSTAR          = .12567559E-2
MEAN_MOTION_DOT = .58588E-2
MEAN_MOTION_DDOT = .15821133E-3

