    ["ISS (ZARYA)", "1 25544U 98067A   26057.54172094  .00011988  00000+0  23066-3 0  9998", "2 25544  51.6322 127.4658 0008344 135.8715 224.2940 15.48311551554600"],
    ["CSS (TIANHE)", "1 48274U 21035A   26057.06690971  .00010434  00000+0  12875-3 0  9991", "2 48274  41.4663 278.8535 0005884 197.5112 162.5524 15.60105415275793"],
    ["ISS (NAUKA)", "1 49044U 21066A   26057.54172094  .00011988  00000+0  23066-3 0  9994", "2 49044  51.6322 127.4658 0008344 135.8715 224.2940 15.48311551554533"],
    ["FREGAT DEB", "1 49271U 11037PF  26057.15463805  .00030355  00000+0  45932-1 0  9996", "2 49271  51.6503 335.3298 0949850  32.8817 332.7637 12.39434237211263"],
    ["CSS (WENTIAN)", "1 53239U 22085A   26057.06690971  .00010434  00000+0  12875-3 0  9994", "2 53239  41.4663 278.8535 0005884 197.5112 162.5524 15.60105415173843"],
    ["CSS (MENGTIAN)", "1 54216U 22143A   26057.06690971  .00010434  00000+0  12875-3 0  9995", "2 54216  41.4663 278.8535 0005884 197.5112 162.5524 15.60105415158640"],
    ["PROGRESS-MS 31", "1 64751U 25146A   26057.54172094  .00011988  00000+0  23066-3 0  9999", "2 64751  51.6322 127.4658 0008344 135.8715 224.2940 15.48311551  6751"],
    ["TIANZHOU-9", "1 64786U 25149A   26057.06690971  .00010434  00000+0  12875-3 0  9997", "2 64786  41.4663 278.8535 0005884 197.5112 162.5524 15.60105415255304"],
    ["DRAGON CRS-33", "1 65304U 25186A   26057.54172094  .00011988  00000+0  23066-3 0  9998", "2 65304  51.6322 127.4658 0008344 135.8715 224.2940 15.48311551   110"],
    ["PROGRESS-MS 32", "1 65586U 25204A   26057.54172094  .00011988  00000+0  23066-3 0  9991", "2 65586  51.6322 127.4658 0008344 135.8715 224.2940 15.48311551   279"],
    ["CYGNUS NG-23", "1 65616U 25208A   26057.54172094  .00011988  00000+0  23066-3 0  9999", "2 65616  51.6322 127.4658 0008344 135.8715 224.2940 15.48311551   228"],
    ["ISS OBJECT XK", "1 65731U 98067XK  26057.50341060  .00585880  15821-3  12568-2 0  9999", "2 65731  51.6191 106.0856 0007390  23.7474 336.3875 15.97908056 25102"],
